ONEWEB-0024             
1 45137U 20008G   26137.19625326  .00000404  00000+0  11218-2 0  9995
2 45137  87.8860  42.4232 0001894  79.0695 281.0645 13.10374988304180
ONEWEB-0025             
1 45138U 20008H   26137.11962517  .00000528  00000+0  14750-2 0  9995
2 45138  87.8864  42.4271 0001607  94.6443 265.4868 13.10372034304503
ONEWEB-0026             
1 45139U 20008J   26137.10575949 -.00000456  00000+0 -13230-2 0  9998
2 45139  87.8924  27.2506 0001672  80.2857 279.8460 13.11415518307039
ONEWEB-0028             
1 45140U 20008K   26137.14806557  .00000581  00000+0  16166-2 0  9994
2 45140  87.8906  27.2477 0002382  81.7634 278.3764 13.10850588304550
ONEWEB-0032             
1 45141U 20008L   26137.15308390 -.00000540  00000+0 -15842-2 0  9995
2 45141  87.8858  42.4469 0002357  83.5890 276.5506 13.10374336304234
ONEWEB-0033             
1 45142U 20008M   26137.12805299  .00000065  00000+0  14910-3 0  9999
2 45142  87.8848  42.4603 0001402  70.4796 289.6482 13.10370586304145
ONEWEB-0035             
1 45143U 20008N   26137.15057038 -.00000539  00000+0 -15701-2 0  9999
2 45143  87.8856  42.4490 0001738  77.9101 282.2222 13.10886613303876
ONEWEB-0036             
1 45144U 20008P   26137.11134096  .00000659  00000+0  18657-2 0  9990
2 45144  87.8869  42.4572 0002059  83.3460 276.7901 13.09818732304292
ONEWEB-0038             
1 45145U 20008Q   26137.11607097 -.00000319  00000+0 -93716-3 0  9992
2 45145  87.8937  27.2522 0002730  41.9918 318.1419 13.11416862306253
ONEWEB-0039             
1 45146U 20008R   26137.13137281 -.00000099  00000+0 -31864-3 0  9999
2 45146  87.8856  42.4487 0002335  79.7721 280.3669 13.10369621304091
ONEWEB-0040             
1 45147U 20008S   26137.12473559  .00000272  00000+0  74232-3 0  9997
2 45147  87.8850  42.4617 0001884  75.7905 284.3432 13.10370257303794
ONEWEB-0043             
1 45149U 20008U   26137.12641833  .00003204  00000+0  91414-2 0  9999
2 45149  87.8852  42.4479 0002384  80.9809 279.1588 13.10359174304117
ONEWEB-0044             
1 45150U 20008V   26137.15460604 -.00000455  00000+0 -13387-2 0  9999
2 45150  87.8871  42.4399 0002101  76.1917 283.9444 13.10375042304414
ONEWEB-0045             
1 45151U 20008W   26137.11084670 -.00000434  00000+0 -12590-2 0  9993
2 45151  87.8926  27.2386 0001966  79.0831 281.0518 13.11415993306333
ONEWEB-0047             
1 45152U 20008X   26137.14796206 -.00000639  00000+0 -18679-2 0  9993
2 45152  87.8860  42.4422 0001771  73.9524 286.1798 13.10372915304134
ONEWEB-0048             
1 45153U 20008Y   26137.14298281 -.00000551  00000+0 -16136-2 0  9993
2 45153  87.8854  42.4666 0001812  76.8668 283.2661 13.10371625303745
ONEWEB-0049             
1 45154U 20008Z   26137.14616708 -.00000610  00000+0 -17850-2 0  9992
2 45154  87.8857  42.4546 0001997  91.4960 268.6396 13.10372551303963
ONEWEB-0051             
1 45155U 20008AA  26137.10915472 -.00000484  00000+0 -14020-2 0  9994
2 45155  87.8926  27.2472 0001812  81.1654 278.9679 13.11415362307019
ONEWEB-0052             
1 45156U 20008AB  26137.16637487  .00000007  00000+0 -15473-4 0  9993
2 45156  87.8863  42.4360 0002057  91.3621 268.7742 13.10376272303877
ONEWEB-0053             
1 45157U 20008AC  26137.12307883  .00000245  00000+0  66512-3 0  9996
2 45157  87.8850  42.4676 0002347  85.5651 274.5744 13.10370424303841
ONEWEB-0054             
1 45158U 20008AD  26137.15792699 -.00000504  00000+0 -14797-2 0  9990
2 45158  87.8865  42.4405 0001845  81.3808 278.7528 13.10374548303968
ONEWEB-0056             
1 45159U 20008AE  26137.13111661 -.00000083  00000+0 -27256-3 0  9990
2 45159  87.8858  42.4410 0001651  84.9827 275.1489 13.10840087304113
ONEWEB-0057             
1 45160U 20008AF  26137.14644252 -.00000607  00000+0 -17759-2 0  9998
2 45160  87.8856  42.4503 0002314  85.5315 274.6077 13.10373098304280
ONEWEB-0058             
1 45161U 20008AG  26137.13316662 -.00000249  00000+0 -75016-3 0  9992
2 45161  87.8850  42.4603 0001819  72.2020 287.9305 13.10369929304358
ONEWEB-0059             
1 45162U 20008AH  26137.12971645 -.00000047  00000+0 -17129-3 0  9997
2 45162  87.8848  42.4602 0002018  74.9454 285.1897 13.10370643304257
ONEWEB-0062             
1 45163U 20008AJ  26137.15279981 -.00000608  00000+0 -17793-2 0  9994
2 45163  87.8865  42.4403 0001615  67.7190 292.4109 13.10373478304127
ONEWEB-0065             
1 45164U 20008AK  26137.10966950  .00000662  00000+0  18599-2 0  9992
2 45164  87.8858  42.4573 0002074  89.1802 270.9563 13.10373066303819
STARLINK-1143           
1 45179U 20012B   26136.98324566  .00150494  00000+0  73774-3 0  9995
2 45179  53.0395 351.3002 0001141 290.8414  69.2485 15.81308289346666
STARLINK-1202           
1 45183U 20012F   26136.84600916  .00021178  00000+0  66759-3 0  9992
2 45183  53.1575  82.3238 0003128  83.9059 276.2300 15.32863187345391
STARLINK-1216           
1 45185U 20012H   26137.15511282  .00019708  00000+0  61669-3 0  9997
2 45185  53.1569  80.7824 0003352  88.5177 271.6209 15.33146200345387
