OBJECT_NAME,OBJECT_ID,EPOCH,MEAN_MOTION,ECCENTRICITY,INCLINATION,RA_OF_ASC_NODE,ARG_OF_PERICENTER,MEAN_ANOMALY,EPHEMERIS_TYPE,CLASSIFICATION_TYPE,NORAD_CAT_ID,ELEMENT_SET_NO,REV_AT_EPOCH,BSTAR,MEAN_MOTION_DOT,MEAN_MOTION_DDOT
ONEWEB-0024,2020-008G,2026-05-17T04:42:36.281664,13.10374988,.0001894,87.8860,42.4232,79.0695,281.0645,0,U,45137,999,30418,.11218E-2,.404E-5,0
ONEWEB-0025,2020-008H,2026-05-17T02:52:15.614688,13.10372034,.0001607,87.8864,42.4271,94.6443,265.4868,0,U,45138,999,30450,.1475E-2,.528E-5,0
ONEWEB-0026,2020-008J,2026-05-17T02:32:17.619936,13.11415518,.0001672,87.8924,27.2506,80.2857,279.8460,0,U,45139,999,30703,-.1323E-2,-.456E-5,0
ONEWEB-0028,2020-008K,2026-05-17T03:33:12.865248,13.10850588,.0002382,87.8906,27.2477,81.7634,278.3764,0,U,45140,999,30455,.16166E-2,.581E-5,0
ONEWEB-0032,2020-008L,2026-05-17T03:40:26.448960,13.10374336,.0002357,87.8858,42.4469,83.5890,276.5506,0,U,45141,999,30423,-.15842E-2,-.54E-5,0
ONEWEB-0033,2020-008M,2026-05-17T03:04:23.778336,13.10370586,.0001402,87.8848,42.4603,70.4796,289.6482,0,U,45142,999,30414,.1491E-3,.65E-6,0
ONEWEB-0035,2020-008N,2026-05-17T03:36:49.280832,13.10886613,.0001738,87.8856,42.4490,77.9101,282.2222,0,U,45143,999,30387,-.15701E-2,-.539E-5,0
ONEWEB-0036,2020-008P,2026-05-17T02:40:19.858944,13.09818732,.0002059,87.8869,42.4572,83.3460,276.7901,0,U,45144,999,30429,.18657E-2,.659E-5,0
ONEWEB-0038,2020-008Q,2026-05-17T02:47:08.531808,13.11416862,.000273,87.8937,27.2522,41.9918,318.1419,0,U,45145,999,30625,-.93716E-3,-.319E-5,0
ONEWEB-0039,2020-008R,2026-05-17T03:09:10.610784,13.10369621,.0002335,87.8856,42.4487,79.7721,280.3669,0,U,45146,999,30409,-.31864E-3,-.99E-6,0
ONEWEB-0040,2020-008S,2026-05-17T02:59:37.154976,13.10370257,.0001884,87.8850,42.4617,75.7905,284.3432,0,U,45147,999,30379,.74232E-3,.272E-5,0
ONEWEB-0043,2020-008U,2026-05-17T03:02:02.543712,13.10359174,.0002384,87.8852,42.4479,80.9809,279.1588,0,U,45149,999,30411,.91414E-2,.3204E-4,0
ONEWEB-0044,2020-008V,2026-05-17T03:42:37.961856,13.10375042,.0002101,87.8871,42.4399,76.1917,283.9444,0,U,45150,999,30441,-.13387E-2,-.455E-5,0
ONEWEB-0045,2020-008W,2026-05-17T02:39:37.154880,13.11415993,.0001966,87.8926,27.2386,79.0831,281.0518,0,U,45151,999,30633,-.1259E-2,-.434E-5,0
ONEWEB-0047,2020-008X,2026-05-17T03:33:03.921984,13.10372915,.0001771,87.8860,42.4422,73.9524,286.1798,0,U,45152,999,30413,-.18679E-2,-.639E-5,0
ONEWEB-0048,2020-008Y,2026-05-17T03:25:53.714784,13.10371625,.0001812,87.8854,42.4666,76.8668,283.2661,0,U,45153,999,30374,-.16136E-2,-.551E-5,0
ONEWEB-0049,2020-008Z,2026-05-17T03:30:28.835712,13.10372551,.0001997,87.8857,42.4546,91.4960,268.6396,0,U,45154,999,30396,-.1785E-2,-.61E-5,0
ONEWEB-0051,2020-008AA,2026-05-17T02:37:10.967808,13.11415362,.0001812,87.8926,27.2472,81.1654,278.9679,0,U,45155,999,30701,-.1402E-2,-.484E-5,0
ONEWEB-0052,2020-008AB,2026-05-17T03:59:34.788768,13.10376272,.0002057,87.8863,42.4360,91.3621,268.7742,0,U,45156,999,30387,-.15473E-4,.7E-7,0
ONEWEB-0053,2020-008AC,2026-05-17T02:57:14.010912,13.10370424,.0002347,87.8850,42.4676,85.5651,274.5744,0,U,45157,999,30384,.66512E-3,.245E-5,0
ONEWEB-0054,2020-008AD,2026-05-17T03:47:24.891936,13.10374548,.0001845,87.8865,42.4405,81.3808,278.7528,0,U,45158,999,30396,-.14797E-2,-.504E-5,0
ONEWEB-0056,2020-008AE,2026-05-17T03:08:48.475104,13.10840087,.0001651,87.8858,42.4410,84.9827,275.1489,0,U,45159,999,30411,-.27256E-3,-.83E-6,0
ONEWEB-0057,2020-008AF,2026-05-17T03:30:52.633728,13.10373098,.0002314,87.8856,42.4503,85.5315,274.6077,0,U,45160,999,30428,-.17759E-2,-.607E-5,0
ONEWEB-0058,2020-008AG,2026-05-17T03:11:45.595968,13.10369929,.0001819,87.8850,42.4603,72.2020,287.9305,0,U,45161,999,30435,-.75016E-3,-.249E-5,0
ONEWEB-0059,2020-008AH,2026-05-17T03:06:47.501280,13.10370643,.0002018,87.8848,42.4602,74.9454,285.1897,0,U,45162,999,30425,-.17129E-3,-.47E-6,0
ONEWEB-0062,2020-008AJ,2026-05-17T03:40:01.903584,13.10373478,.0001615,87.8865,42.4403,67.7190,292.4109,0,U,45163,999,30412,-.17793E-2,-.608E-5,0
ONEWEB-0065,2020-008AK,2026-05-17T02:37:55.444800,13.10373066,.0002074,87.8858,42.4573,89.1802,270.9563,0,U,45164,999,30381,.18599E-2,.662E-5,0
STARLINK-1143,2020-012B,2026-05-16T23:35:52.425024,15.81308289,.0001141,53.0395,351.3002,290.8414,69.2485,0,U,45179,999,34666,.73774E-3,.150494E-2,0
STARLINK-1202,2020-012F,2026-05-16T20:18:15.191424,15.32863187,.00031282,53.1575,82.3238,83.9059,276.2300,0,U,45183,999,34539,.66758777E-3,.21178E-3,0
STARLINK-1216,2020-012H,2026-05-17T03:43:21.747648,15.33146200,.0003352,53.1569,80.7824,88.5177,271.6209,0,U,45185,999,34538,.61669E-3,.19708E-3,0
